[{"OBJECT_NAME":"OBJECT H","OBJECT_ID":"2025-055H","EPOCH":"2026-03-09T23:29:50.051328","MEAN_MOTION":15.30330066,"ECCENTRICITY":0.00075967,"INCLINATION":97.636,"RA_OF_ASC_NODE":211.9572,"ARG_OF_PERICENTER":140.4354,"MEAN_ANOMALY":219.7441,"EPHEMERIS_TYPE":0,"CLASSIFICATION_TYPE":"U","NORAD_CAT_ID":63298,"ELEMENT_SET_NO":999,"REV_AT_EPOCH":5423,"BSTAR":0.0015582864,"MEAN_MOTION_DOT":0.00045901,"MEAN_MOTION_DDOT":0},{"OBJECT_NAME":"STARLINK-34878","OBJECT_ID":"2025-189M","EPOCH":"2026-03-09T15:42:54.021888","MEAN_MOTION":15.30192129,"ECCENTRICITY":0.00010722,"INCLINATION":53.1597,"RA_OF_ASC_NODE":206.7521,"ARG_OF_PERICENTER":50.6921,"MEAN_ANOMALY":309.4175,"EPHEMERIS_TYPE":0,"CLASSIFICATION_TYPE":"U","NORAD_CAT_ID":65334,"ELEMENT_SET_NO":999,"REV_AT_EPOCH":3110,"BSTAR":0.00066262464,"MEAN_MOTION_DOT":0.00019312,"MEAN_MOTION_DDOT":0}]
